SONATE-2                
1 59112U 24043Q   24120.91731920  .00009560  00000+0  48101-3 0  9998
2 59112  97.4716 245.3459 0016493 103.4858 256.8215 15.17312392  8481
TEST-CASE
1 88888U 80275.98708465 .00073094 13844-3 66816-4 0 8
2 88888 72.8435 115.9689 0086731 52.6988 110.5714 16.05824518 105
